{
    "links": {
        "self": "http://www.neowsapp.com/rest/v1/neo/3289177?api_key=iIulBulltgU6a56xZRHN4H3l9WmuAYTsLGpBGhQ2"
    },
    "id": "3289177",
    "neo_reference_id": "3289177",
    "name": "(2005 RA)",
    "designation": "2005 RA",
    "nasa_jpl_url": "http://ssd.jpl.nasa.gov/sbdb.cgi?sstr=3289177",
    "absolute_magnitude_h": 22.2,
    "estimated_diameter": {
        "kilometers": {
            "estimated_diameter_min": 0.096506147,
            "estimated_diameter_max": 0.2157943048
        },
        "meters": {
            "estimated_diameter_min": 96.5061469579,
            "estimated_diameter_max": 215.7943048444
        },
        "miles": {
            "estimated_diameter_min": 0.059966121,
            "estimated_diameter_max": 0.134088323
        },
        "feet": {
            "estimated_diameter_min": 316.6212271853,
            "estimated_diameter_max": 707.9865871058
        }
    },
    "is_potentially_hazardous_asteroid": false,
    "close_approach_data": [
        {
            "close_approach_date": "2005-09-08",
            "close_approach_date_full": "2005-Sep-08 19:45",
            "epoch_date_close_approach": 1126208700000,
            "relative_velocity": {
                "kilometers_per_second": "15.3266824067",
                "kilometers_per_hour": "55176.0566642708",
                "miles_per_hour": "34284.255875641"
            },
            "miss_distance": {
                "astronomical": "0.0670067118",
                "lunar": "26.0656108902",
                "kilometers": "10024061.360983866",
                "miles": "6228662.9027787108"
            },
            "orbiting_body": "Earth"
        }
    ],
    "orbital_data": {
        "orbit_id": "10",
        "orbit_determination_date": "2017-04-06 09:10:34",
        "first_observation_date": "2005-09-01",
        "last_observation_date": "2005-09-14",
        "data_arc_in_days": 13,
        "observations_used": 44,
        "orbit_uncertainty": "8",
        "minimum_orbit_intersection": ".0396553",
        "jupiter_tisserand_invariant": "3.054",
        "epoch_osculation": "2453615.5",
        "eccentricity": ".6664825052611996",
        "semi_major_axis": "2.595882223536596",
        "inclination": "4.460568187519002",
        "ascending_node_longitude": "321.899799608288",
        "orbital_period": "1527.657172648939",
        "perihelion_distance": ".8657721358309124",
        "perihelion_argument": "80.2556776475418",
        "aphelion_distance": "4.32599231124228",
        "perihelion_time": "2453660.179109195587",
        "mean_anomaly": "349.4711460147037",
        "mean_motion": ".2356549666020711",
        "equinox": "J2000",
        "orbit_class": {
            "orbit_class_type": "APO",
            "orbit_class_description": "Near-Earth asteroid orbits which cross the Earth’s orbit similar to that of 1862 Apollo",
            "orbit_class_range": "a (semi-major axis) > 1.0 AU; q (perihelion) < 1.017 AU"
        }
    },
    "is_sentry_object": false
}